0 SL-8 DEB *
1 15528U 82109D   13281.20016441  .00001063  00000-0  27859-3 0  8144
2 15528 074.0254 220.2110 0011754 006.7372 059.3790 14.50487469543245
0 SL-8 DEB *
1 15528U 82109D   13283.20038433  .00001100  00000-0  28800-3 0  8151
2 15528 074.0255 216.4497 0011834 002.7129 063.8203 14.50496772543534
0 SL-8 DEB *
1 15528U 82109D   13285.81433417  .00001054  00000-0  27616-3 0  8164
2 15528 074.0257 211.5341 0011929 357.4438 033.0318 14.50502072543917
0 SL-8 DEB *
1 15528U 82109D   13288.25239410  .00001713  00000-0  44431-3 0  8179
2 15528 074.0257 206.9496 0012020 352.5784 163.8087 14.50509879544265
0 SL-8 DEB *
1 15528U 82109D   13290.45267596  .00001350  00000-0  35144-3 0  8189
2 15528 074.0254 202.8123 0012110 348.2603 132.9722 14.50517756544587
0 SL-8 DEB *
1 15528U 82109D   13293.13239823  .00001428  00000-0  37146-3 0  8190
2 15528 074.0250 197.7732 0012198 342.8844 085.8157 14.50524435544977
0 SL-8 DEB *
1 15528U 82109D   13295.14856049  .00001398  00000-0  36363-3 0  8206
2 15528 074.0248 193.9818 0012253 338.8356 173.7635 14.50530752545262
